0 COSMOS 2251 DEB
1 35978U 93036AVU 13294.43394422  .00015081  00000-0  18619-2 0  1740
2 35978 073.9605 308.9755 0078400 132.4085 233.2987 14.80659106232172
